{"type":"FeatureCollection", "features": [
{"type":"Feature","geometry":{"type":"Polygon","coordinates":[[[-51.71873,-31.85463],[-51.69132,-31.84088],[-51.6246,-31.80949],[-51.60047,-31.79682],[-51.5715,-31.78038],[-51.50237,-31.74288],[-51.48372,-31.73193],[-51.45299,-31.71254],[-51.42724,-31.69562],[-51.40035,-31.67652],[-51.37549,-31.65797],[-51.34468,-31.63622],[-51.33095,-31.62539],[-51.29381,-31.59873],[-51.26752,-31.57861],[-51.24392,-31.55931],[-51.22094,-31.53941],[-51.20239,-31.5216],[-51.16666,-31.48461],[-51.10401,-31.42143],[-51.07742,-31.39538],[-51.04008,-31.35995],[-51.00678,-31.33326],[-50.97037,-31.30487],[-50.92401,-31.26644],[-50.89831,-31.24433],[-50.87914,-31.22704],[-50.83365,-31.18211],[-50.81134,-31.15749],[-50.77932,-31.1239],[-50.76724,-31.11011],[-50.74254,-31.07545],[-50.70372,-31.01475],[-50.66785,-30.9629],[-50.64502,-30.93166],[-50.60537,-30.87905],[-50.55831,-30.8182],[-50.5201,-30.76257],[-50.50659,-30.74353],[-50.48446,-30.70889],[-50.46491,-30.68071],[-50.4287,-30.63216],[-50.37398,-30.56289],[-50.34829,-30.52465],[-50.33157,-30.49644],[-50.32072,-30.47687],[-50.30606,-30.44712],[-50.28944,-30.40527],[-50.2777,-30.37123],[-50.26429,-30.33605],[-50.243,-30.28376],[-50.22155,-30.2299],[-50.21901,-30.22247],[-50.18952,-30.14693],[-50.17733,-30.11434],[-50.15797,-30.06652],[-50.13005,-30.00467],[-50.11307,-29.96371],[-50.08541,-29.90542],[-50.05869,-29.84992],[-50.04058,-29.81662],[-50.00045,-29.74003],[-49.96031,-29.669],[-49.94375,-29.64104],[-49.92654,-29.61371],[-49.90729,-29.58465],[-49.86722,-29.52861],[-49.83274,-29.48134],[-49.79486,-29.43237],[-49.73797,-29.36146],[-49.732,-29.35824],[-49.73036,-29.35016],[-49.7158,-29.3324],[-49.71258,-29.3267],[-49.72325,-29.32651],[-49.73079,-29.32906],[-49.74658,-29.3238],[-49.74356,-29.31972],[-49.73082,-29.31835],[-49.73429,-29.31161],[-49.73942,-29.31477],[-49.7421,-29.29882],[-49.7494,-29.29736],[-49.76234,-29.30026],[-49.77693,-29.29652],[-49.78012,-29.29072],[-49.79256,-29.28604],[-49.79943,-29.28746],[-49.81573,-29.28587],[-49.82237,-29.28261],[-49.82969,-29.27596],[-49.84363,-29.27762],[-49.845,-29.26841],[-49.84354,-29.25931],[-49.85468,-29.2573],[-49.85218,-29.25334],[-49.85262,-29.24441],[-49.85864,-29.24162],[-49.8571,-29.23306],[-49.86953,-29.22438],[-49.88823,-29.21881],[-49.89804,-29.21412],[-49.9033,-29.21472],[-49.91287,-29.20794],[-49.92499,-29.20619],[-49.93323,-29.20839],[-49.94257,-29.20572],[-49.94533,-29.20151],[-49.96273,-29.19885],[-49.97114,-29.20476],[-49.96905,-29.21146],[-49.9792,-29.21875],[-49.99682,-29.22828],[-50.00993,-29.22541],[-50.02638,-29.23121],[-50.03483,-29.23281],[-50.03655,-29.23785],[-50.05011,-29.24177],[-50.06088,-29.24129],[-50.07065,-29.24821],[-50.08933,-29.25427],[-50.09533,-29.25162],[-50.10137,-29.25586],[-50.11082,-29.25847],[-50.11548,-29.26228],[-50.10847,-29.28013],[-50.10076,-29.28392],[-50.09959,-29.2884],[-50.07645,-29.30777],[-50.06894,-29.31168],[-50.06511,-29.31052],[-50.05122,-29.32411],[-50.05112,-29.32934],[-50.0449,-29.33523],[-50.05577,-29.34137],[-50.07101,-29.32949],[-50.07228,-29.3247],[-50.08579,-29.31803],[-50.09149,-29.31076],[-50.09918,-29.31143],[-50.10362,-29.30739],[-50.11253,-29.30397],[-50.11415,-29.29917],[-50.12005,-29.29667],[-50.11711,-29.2918],[-50.1237,-29.28717],[-50.13037,-29.28696],[-50.12829,-29.29787],[-50.13294,-29.30034],[-50.14082,-29.2865],[-50.14885,-29.28202],[-50.14346,-29.27582],[-50.14554,-29.25744],[-50.15158,-29.24811],[-50.16998,-29.24953],[-50.1723,-29.24689],[-50.15186,-29.24322],[-50.14108,-29.23831],[-50.14071,-29.22841],[-50.15123,-29.23016],[-50.14888,-29.22111],[-50.13995,-29.21551],[-50.13969,-29.20726],[-50.14562,-29.19782],[-50.12687,-29.19786],[-50.1244,-29.20161],[-50.11115,-29.20779],[-50.10777,-29.21104],[-50.09328,-29.21278],[-50.0976,-29.22242],[-50.11114,-29.22884],[-50.10174,-29.23053],[-50.09355,-29.22368],[-50.09107,-29.23256],[-50.08403,-29.22666],[-50.08829,-29.22301],[-50.08398,-29.21384],[-50.09007,-29.21063],[-50.08499,-29.205],[-50.09036,-29.20128],[-50.08539,-29.1936],[-50.08763,-29.18375],[-50.09744,-29.17063],[-50.09997,-29.1642],[-50.09684,-29.15894],[-50.0903,-29.16082],[-50.08128,-29.15839],[-50.07982,-29.15536],[-50.0683,-29.15518],[-50.08757,-29.1641],[-50.09342,-29.16791],[-50.08929,-29.1754],[-50.08244,-29.17965],[-50.07532,-29.18836],[-50.06485,-29.17963],[-50.0644,-29.18568],[-50.05402,-29.1831],[-50.04337,-29.18373],[-50.03861,-29.17744],[-50.02162,-29.17734],[-50.02844,-29.1714],[-50.01797,-29.16283],[-50.02,-29.15487],[-50.01373,-29.1548],[-50.00491,-29.14064],[-50.00707,-29.13435],[-50.00166,-29.12714],[-49.99841,-29.13087],[-49.98432,-29.13671],[-49.98682,-29.12574],[-49.9918,-29.11725],[-49.96893,-29.11602],[-49.9683,-29.10918],[-49.97049,-29.10134],[-49.96351,-29.10049],[-49.9673,-29.09372],[-49.96523,-29.08195],[-49.95616,-29.08492],[-49.95447,-29.07749],[-49.96033,-29.07068],[-49.95246,-29.0686],[-49.95111,-29.0614],[-49.96253,-29.06525],[-49.97303,-29.06583],[-49.9795,-29.06853],[-49.99399,-29.06961],[-49.98979,-29.06298],[-49.9772,-29.05884],[-49.96968,-29.0539],[-49.961,-29.05081],[-49.96117,-29.04377],[-49.95601,-29.0416],[-49.95629,-29.03519],[-49.94614,-29.03075],[-49.94803,-29.02697],[-49.94143,-29.02133],[-49.9541,-29.02087],[-49.96103,-29.02332],[-49.96599,-29.02175],[-49.9574,-29.01213],[-49.94629,-28.99506],[-49.94247,-28.98224],[-49.93095,-28.97595],[-49.93366,-28.96582],[-49.95424,-28.96181],[-49.95715,-28.95786],[-49.9547,-28.95214],[-49.95852,-28.94505],[-49.95979,-28.93559],[-49.95635,-28.92903],[-49.96509,-28.92553],[-49.9583,-28.90242],[-49.9496,-28.89797],[-49.95113,-28.88816],[-49.94623,-28.88519],[-49.95053,-28.88059],[-49.94949,-28.87571],[-49.95676,-28.87036],[-49.96714,-28.87669],[-49.96872,-28.86967],[-49.95709,-28.86177],[-49.956,-28.85712],[-49.96212,-28.85355],[-49.96037,-28.83814],[-49.95782,-28.8291],[-49.96474,-28.82836],[-49.96609,-28.8198],[-49.96172,-28.80671],[-49.96205,-28.79841],[-49.95747,-28.79877],[-49.96217,-28.7776],[-49.96133,-28.77218],[-49.95078,-28.7633],[-49.95343,-28.75801],[-49.94574,-28.75194],[-49.93703,-28.75667],[-49.92759,-28.75377],[-49.92882,-28.7497],[-49.92174,-28.74554],[-49.93144,-28.73789],[-49.93468,-28.72568],[-49.92604,-28.71831],[-49.91664,-28.71738],[-49.90795,-28.71377],[-49.90486,-28.71848],[-49.89326,-28.72288],[-49.88255,-28.71739],[-49.88106,-28.72229],[-49.89181,-28.73924],[-49.88916,-28.7457],[-49.88134,-28.74652],[-49.87814,-28.74373],[-49.88332,-28.7377],[-49.87397,-28.72677],[-49.86802,-28.72196],[-49.87272,-28.71535],[-49.86938,-28.70102],[-49.8499,-28.70565],[-49.84245,-28.7063],[-49.83406,-28.69329],[-49.82094,-28.69276],[-49.82453,-28.6869],[-49.83801,-28.69003],[-49.8403,-28.68587],[-49.83694,-28.68087],[-49.84042,-28.67614],[-49.83918,-28.66654],[-49.83078,-28.66823],[-49.82458,-28.66574],[-49.82288,-28.65886],[-49.81712,-28.65889],[-49.81078,-28.6519],[-49.81534,-28.64848],[-49.81662,-28.63814],[-49.80881,-28.63534],[-49.80747,-28.62842],[-49.79819,-28.62402],[-49.79807,-28.61767],[-49.78256,-28.6098],[-49.78434,-28.62438],[-49.7789,-28.62948],[-49.75663,-28.61604],[-49.75699,-28.62733],[-49.74991,-28.62795],[-49.7443,-28.62429],[-49.72755,-28.62422],[-49.72342,-28.62617],[-49.71595,-28.62379],[-49.70972,-28.62577],[-49.70791,-28.63024],[-49.69367,-28.62555],[-49.69139,-28.62137],[-49.6966,-28.61468],[-49.69766,-28.60813],[-49.7022,-28.6047],[-49.71019,-28.60434],[-49.70949,-28.59784],[-49.71215,-28.59093],[-49.70797,-28.58223],[-49.71378,-28.57447],[-49.71766,-28.57722],[-49.72598,-28.5695],[-49.7311,-28.551],[-49.74606,-28.54978],[-49.74943,-28.54569],[-49.74672,-28.53539],[-49.73548,-28.52362],[-49.72687,-28.51893],[-49.73474,-28.51448],[-49.73882,-28.50851],[-49.74592,-28.50738],[-49.73927,-28.50033],[-49.74298,-28.49525],[-49.74826,-28.49397],[-49.75444,-28.49825],[-49.76546,-28.5012],[-49.771,-28.49227],[-49.7652,-28.48427],[-49.76757,-28.47658],[-49.76433,-28.46267],[-49.76744,-28.45955],[-49.77321,-28.46823],[-49.78101,-28.47177],[-49.77805,-28.47726],[-49.78604,-28.48765],[-49.78225,-28.49666],[-49.79093,-28.49642],[-49.79521,-28.48894],[-49.80384,-28.48401],[-49.80878,-28.46922],[-49.81727,-28.46987],[-49.81648,-28.47856],[-49.82415,-28.47878],[-49.83934,-28.49649],[-49.8448,-28.49467],[-49.84393,-28.4852],[-49.85213,-28.48809],[-49.86665,-28.48863],[-49.86902,-28.48063],[-49.86293,-28.47202],[-49.86357,-28.46285],[-49.87343,-28.45927],[-49.87777,-28.45452],[-49.87099,-28.45064],[-49.86051,-28.45023],[-49.85422,-28.44466],[-49.85981,-28.44228],[-49.87022,-28.44156],[-49.88022,-28.44693],[-49.88583,-28.44639],[-49.89291,-28.4403],[-49.89805,-28.44562],[-49.8934,-28.45018],[-49.88885,-28.45942],[-49.90042,-28.46471],[-49.9186,-28.45826],[-49.92851,-28.45122],[-49.93739,-28.45693],[-49.92887,-28.46682],[-49.92883,-28.47213],[-49.94232,-28.48243],[-49.94659,-28.48004],[-49.95135,-28.46693],[-49.95224,-28.45075],[-49.96938,-28.45252],[-49.97077,-28.44021],[-49.98098,-28.44064],[-49.98952,-28.44822],[-49.98636,-28.45475],[-49.98939,-28.45715],[-50.00245,-28.45803],[-50.01388,-28.45078],[-50.01967,-28.45192],[-50.02392,-28.45936],[-50.02438,-28.46848],[-50.02718,-28.47427],[-50.03954,-28.48004],[-50.05138,-28.47609],[-50.06561,-28.47686],[-50.07064,-28.48065],[-50.08199,-28.47335],[-50.09094,-28.47561],[-50.09718,-28.48438],[-50.10266,-28.48409],[-50.10479,-28.47573],[-50.11055,-28.47294],[-50.12225,-28.47626],[-50.1264,-28.47402],[-50.12712,-28.46551],[-50.11348,-28.45178],[-50.11138,-28.44541],[-50.11579,-28.43709],[-50.12591,-28.42922],[-50.1294,-28.44102],[-50.13921,-28.4432],[-50.14728,-28.44953],[-50.14661,-28.45723],[-50.16053,-28.45952],[-50.15915,-28.4647],[-50.14624,-28.47655],[-50.13938,-28.49329],[-50.15444,-28.49765],[-50.16262,-28.49532],[-50.16217,-28.4793],[-50.16514,-28.4709],[-50.17256,-28.45855],[-50.1785,-28.45189],[-50.18831,-28.45349],[-50.19909,-28.44483],[-50.204,-28.44381],[-50.20698,-28.45046],[-50.21584,-28.46032],[-50.22265,-28.46327],[-50.23571,-28.45703],[-50.24241,-28.43203],[-50.2468,-28.42827],[-50.25663,-28.43769],[-50.26421,-28.44293],[-50.26304,-28.446],[-50.25029,-28.44709],[-50.27291,-28.45707],[-50.29205,-28.45149],[-50.30133,-28.43927],[-50.31457,-28.43776],[-50.32317,-28.43388],[-50.33595,-28.43684],[-50.34045,-28.44097],[-50.3368,-28.45577],[-50.33989,-28.46161],[-50.34585,-28.46355],[-50.35205,-28.45729],[-50.35201,-28.44918],[-50.34757,-28.4348],[-50.35098,-28.42485],[-50.36114,-28.41963],[-50.3684,-28.42123],[-50.37688,-28.43493],[-50.37639,-28.44263],[-50.38198,-28.44699],[-50.38973,-28.44364],[-50.39446,-28.43344],[-50.40525,-28.43437],[-50.41633,-28.43264],[-50.42878,-28.43354],[-50.43591,-28.431],[-50.44927,-28.42154],[-50.45686,-28.41065],[-50.47044,-28.4149],[-50.48922,-28.41249],[-50.50108,-28.41254],[-50.51362,-28.40465],[-50.52838,-28.40415],[-50.53159,-28.40781],[-50.52816,-28.42323],[-50.5309,-28.42861],[-50.53801,-28.42961],[-50.54424,-28.4275],[-50.55065,-28.42007],[-50.56541,-28.41322],[-50.56935,-28.40343],[-50.57654,-28.39426],[-50.59318,-28.38158],[-50.60091,-28.38216],[-50.60459,-28.38814],[-50.61388,-28.39361],[-50.62568,-28.39206],[-50.63329,-28.37892],[-50.62882,-28.36402],[-50.63991,-28.35504],[-50.64548,-28.34831],[-50.65473,-28.3418],[-50.66523,-28.33792],[-50.65858,-28.32578],[-50.66491,-28.3128],[-50.67764,-28.30001],[-50.69522,-28.28852],[-50.69417,-28.27744],[-50.69536,-28.27054],[-50.69932,-28.26626],[-50.71074,-28.26652],[-50.71581,-28.26264],[-50.73031,-28.25705],[-50.74201,-28.24977],[-50.75388,-28.24462],[-50.75287,-28.23318],[-50.75645,-28.21452],[-50.75998,-28.2071],[-50.7612,-28.19501],[-50.7682,-28.18896],[-50.77213,-28.19605],[-50.7775,-28.20005],[-50.78882,-28.19834],[-50.78919,-28.18919],[-50.7841,-28.1819],[-50.78282,-28.17598],[-50.7875,-28.1712],[-50.7924,-28.16082],[-50.79205,-28.15516],[-50.78466,-28.14653],[-50.78611,-28.14172],[-50.79408,-28.13864],[-50.81818,-28.14127],[-50.82227,-28.13809],[-50.82498,-28.12395],[-50.83024,-28.11765],[-50.83676,-28.1194],[-50.85899,-28.13971],[-50.86552,-28.14078],[-50.87197,-28.13742],[-50.87524,-28.1308],[-50.86918,-28.11642],[-50.87006,-28.10594],[-50.87592,-28.09508],[-50.88435,-28.0897],[-50.89936,-28.08966],[-50.90327,-28.08269],[-50.89848,-28.07552],[-50.8859,-28.07175],[-50.87914,-28.06356],[-50.87543,-28.05442],[-50.8754,-28.0402],[-50.88967,-28.02292],[-50.908,-28.01485],[-50.92324,-28.01199],[-50.92081,-28.00263],[-50.92787,-27.99058],[-50.92323,-27.97961],[-50.92397,-27.97165],[-50.93085,-27.96759],[-50.94028,-27.96867],[-50.94704,-27.96724],[-50.9587,-27.96004],[-50.97693,-27.95197],[-50.98031,-27.94265],[-50.986,-27.9405],[-50.99363,-27.94601],[-51.00078,-27.96212],[-51.00919,-27.96444],[-51.01896,-27.95705],[-51.02162,-27.94522],[-51.01627,-27.93329],[-51.01646,-27.92551],[-51.01991,-27.92249],[-51.0369,-27.91508],[-51.05597,-27.90367],[-51.05828,-27.89684],[-51.05629,-27.883],[-51.05321,-27.87391],[-51.05482,-27.86713],[-51.07389,-27.86414],[-51.07859,-27.8616],[-51.07907,-27.85336],[-51.07656,-27.84185],[-51.08223,-27.83393],[-51.09827,-27.82742],[-51.11134,-27.8291],[-51.12104,-27.83257],[-51.13106,-27.83009],[-51.12931,-27.82289],[-51.13229,-27.80737],[-51.13461,-27.80366],[-51.15427,-27.80384],[-51.16005,-27.80147],[-51.18777,-27.7777],[-51.19242,-27.77588],[-51.20938,-27.77747],[-51.21955,-27.77005],[-51.22625,-27.77118],[-51.23174,-27.77792],[-51.24013,-27.77902],[-51.2456,-27.77027],[-51.24555,-27.76145],[-51.25678,-27.75443],[-51.27197,-27.75174],[-51.27461,-27.74848],[-51.27295,-27.73425],[-51.27423,-27.72585],[-51.2825,-27.72299],[-51.29369,-27.72549],[-51.30681,-27.72099],[-51.31018,-27.71312],[-51.302,-27.70256],[-51.3113,-27.69582],[-51.31299,-27.69183],[-51.31339,-27.67876],[-51.31511,-27.67507],[-51.32708,-27.671],[-51.34012,-27.67416],[-51.34969,-27.67993],[-51.36011,-27.67879],[-51.37483,-27.66741],[-51.37793,-27.66002],[-51.36983,-27.64048],[-51.37223,-27.63353],[-51.38129,-27.6255],[-51.38925,-27.62381],[-51.40529,-27.63186],[-51.4099,-27.63974],[-51.41187,-27.64749],[-51.41915,-27.65464],[-51.43237,-27.65561],[-51.43701,-27.65207],[-51.43797,-27.644],[-51.43661,-27.62985],[-51.44519,-27.61876],[-51.45768,-27.60711],[-51.47528,-27.60074],[-51.47757,-27.59595],[-51.47664,-27.57942],[-51.47842,-27.56973],[-51.48334,-27.56323],[-51.49105,-27.55896],[-51.50191,-27.55614],[-51.51704,-27.55769],[-51.52495,-27.56079],[-51.53661,-27.56257],[-51.54414,-27.55953],[-51.55175,-27.56046],[-51.55488,-27.56399],[-51.55638,-27.57516],[-51.56086,-27.58308],[-51.57171,-27.58262],[-51.58564,-27.56961],[-51.58737,-27.56318],[-51.58049,-27.54495],[-51.57769,-27.53013],[-51.57997,-27.52362],[-51.59076,-27.52297],[-51.59938,-27.52856],[-51.60833,-27.54137],[-51.61498,-27.54539],[-51.62349,-27.54606],[-51.63113,-27.54146],[-51.63067,-27.52746],[-51.62531,-27.51696],[-51.61978,-27.5021],[-51.62027,-27.49655],[-51.63041,-27.48914],[-51.64258,-27.49149],[-51.64622,-27.49731],[-51.64743,-27.51633],[-51.65117,-27.51952],[-51.66472,-27.51727],[-51.6775,-27.50489],[-51.6744,-27.49801],[-51.67325,-27.48805],[-51.68421,-27.47955],[-51.69965,-27.47906],[-51.70973,-27.48779],[-51.71732,-27.51144],[-51.72809,-27.51278],[-51.73802,-27.50415],[-51.74422,-27.49497],[-51.75155,-27.48811],[-51.75968,-27.48676],[-51.78552,-27.49146],[-51.79396,-27.48993],[-51.80179,-27.49396],[-51.8017,-27.50381],[-51.79843,-27.50943],[-51.78916,-27.5137],[-51.78524,-27.52101],[-51.7857,-27.52822],[-51.79058,-27.53095],[-51.7987,-27.53004],[-51.80813,-27.52452],[-51.81507,-27.51667],[-51.82179,-27.51279],[-51.83149,-27.51545],[-51.83707,-27.52223],[-51.8435,-27.52543],[-51.85027,-27.52546],[-51.85535,-27.51827],[-51.85406,-27.51266],[-51.84588,-27.49782],[-51.84363,-27.48314],[-51.84764,-27.47848],[-51.85904,-27.475],[-51.8683,-27.47658],[-51.87615,-27.48163],[-51.88045,-27.49238],[-51.87377,-27.51328],[-51.88059,-27.52096],[-51.89079,-27.52032],[-51.89479,-27.51702],[-51.90135,-27.49927],[-51.90255,-27.49138],[-51.90036,-27.47834],[-51.90049,-27.46406],[-51.90393,-27.45984],[-51.91838,-27.45843],[-51.92723,-27.46238],[-51.93652,-27.46882],[-51.95082,-27.47533],[-51.95988,-27.47342],[-51.96391,-27.46832],[-51.96214,-27.46146],[-51.95337,-27.45736],[-51.94167,-27.44888],[-51.93412,-27.43938],[-51.93578,-27.42875],[-51.9513,-27.41731],[-51.96878,-27.41065],[-51.99644,-27.41024],[-52.00326,-27.4082],[-52.00847,-27.40207],[-52.00657,-27.39503],[-52.00059,-27.39149],[-51.98221,-27.38864],[-51.95715,-27.39512],[-51.95063,-27.39451],[-51.94894,-27.38576],[-51.95209,-27.38025],[-51.96241,-27.37452],[-51.97517,-27.37243],[-51.98847,-27.37734],[-51.99671,-27.37823],[-52.00645,-27.37463],[-52.01713,-27.36784],[-52.02289,-27.36215],[-52.02273,-27.35482],[-52.01083,-27.34661],[-52.0072,-27.33933],[-52.00811,-27.33368],[-52.01985,-27.33195],[-52.03837,-27.3442],[-52.0473,-27.3466],[-52.07201,-27.33841],[-52.08219,-27.34017],[-52.0918,-27.34725],[-52.10329,-27.3467],[-52.11073,-27.33725],[-52.11081,-27.33324],[-52.10574,-27.32281],[-52.10569,-27.31335],[-52.11204,-27.30627],[-52.12633,-27.30252],[-52.14193,-27.30604],[-52.16129,-27.31429],[-52.16906,-27.30929],[-52.15931,-27.28156],[-52.1648,-27.27219],[-52.1723,-27.27152],[-52.1801,-27.27664],[-52.19101,-27.29172],[-52.20314,-27.32303],[-52.20944,-27.33052],[-52.21588,-27.33253],[-52.22838,-27.32741],[-52.2348,-27.31066],[-52.24114,-27.30427],[-52.24813,-27.30237],[-52.27298,-27.30438],[-52.27843,-27.29677],[-52.26799,-27.28325],[-52.25976,-27.27894],[-52.24177,-27.27607],[-52.23397,-27.26919],[-52.23542,-27.26424],[-52.24126,-27.26072],[-52.25454,-27.25636],[-52.26032,-27.25657],[-52.27825,-27.26118],[-52.28838,-27.25752],[-52.29877,-27.25751],[-52.30609,-27.26572],[-52.30532,-27.27468],[-52.30204,-27.28466],[-52.2913,-27.30524],[-52.29211,-27.31428],[-52.29977,-27.31908],[-52.30636,-27.31693],[-52.31308,-27.30927],[-52.32914,-27.30216],[-52.34203,-27.28958],[-52.35205,-27.28889],[-52.36106,-27.2995],[-52.36748,-27.30452],[-52.37755,-27.30386],[-52.3815,-27.29467],[-52.38333,-27.28129],[-52.38126,-27.26444],[-52.38213,-27.25757],[-52.38577,-27.25352],[-52.39467,-27.25183],[-52.39969,-27.25657],[-52.39974,-27.26327],[-52.39393,-27.28347],[-52.39586,-27.29143],[-52.40008,-27.29253],[-52.41561,-27.28526],[-52.43909,-27.2644],[-52.44199,-27.25822],[-52.44207,-27.25051],[-52.43733,-27.23665],[-52.43104,-27.22651],[-52.43254,-27.21784],[-52.44048,-27.21624],[-52.44783,-27.21819],[-52.46245,-27.22921],[-52.47541,-27.2327],[-52.47981,-27.23554],[-52.48157,-27.24663],[-52.47642,-27.2592],[-52.4793,-27.26594],[-52.49302,-27.26715],[-52.50807,-27.26411],[-52.52722,-27.26285],[-52.53601,-27.26037],[-52.54218,-27.24383],[-52.54742,-27.23875],[-52.55289,-27.23928],[-52.56107,-27.24779],[-52.56647,-27.24934],[-52.58274,-27.24668],[-52.59357,-27.25029],[-52.60536,-27.26109],[-52.61789,-27.26571],[-52.63322,-27.26548],[-52.64489,-27.26167],[-52.65532,-27.24151],[-52.66016,-27.23781],[-52.66758,-27.23785],[-52.6764,-27.24574],[-52.67744,-27.26283],[-52.67992,-27.27155],[-52.68614,-27.2813],[-52.69496,-27.28433],[-52.70348,-27.27929],[-52.70724,-27.27078],[-52.70631,-27.25612],[-52.71378,-27.23769],[-52.72062,-27.23502],[-52.72701,-27.236],[-52.73402,-27.24265],[-52.7392,-27.25435],[-52.74878,-27.25997],[-52.75632,-27.25841],[-52.763,-27.24919],[-52.76312,-27.2384],[-52.75831,-27.22564],[-52.75773,-27.21721],[-52.76052,-27.2132],[-52.77476,-27.20752],[-52.80752,-27.20237],[-52.81725,-27.20252],[-52.83081,-27.21027],[-52.83968,-27.21132],[-52.84567,-27.20745],[-52.84612,-27.19069],[-52.84289,-27.18049],[-52.84707,-27.17211],[-52.85998,-27.17043],[-52.87703,-27.1774],[-52.88514,-27.18267],[-52.89919,-27.19688],[-52.90689,-27.20055],[-52.9182,-27.2032],[-52.92931,-27.20408],[-52.93771,-27.19721],[-52.93607,-27.17804],[-52.94218,-27.16642],[-52.94988,-27.16299],[-52.95669,-27.16326],[-52.96145,-27.16861],[-52.96613,-27.1807],[-52.96771,-27.19037],[-52.96804,-27.20897],[-52.97094,-27.21763],[-52.98437,-27.22147],[-52.99172,-27.21765],[-52.99998,-27.2067],[-53.00256,-27.19762],[-53.00126,-27.18676],[-52.99835,-27.1823],[-52.98514,-27.17049],[-52.98285,-27.16499],[-52.98487,-27.15341],[-52.99166,-27.14097],[-52.99967,-27.13523],[-53.00597,-27.13749],[-53.0183,-27.15291],[-53.02615,-27.15862],[-53.03755,-27.15775],[-53.0442,-27.14406],[-53.04478,-27.13393],[-53.04139,-27.12491],[-53.03338,-27.11612],[-53.02033,-27.10455],[-53.01718,-27.09525],[-53.02415,-27.08461],[-53.03434,-27.08232],[-53.04821,-27.08365],[-53.06414,-27.09215],[-53.07297,-27.10196],[-53.07829,-27.11131],[-53.07839,-27.12111],[-53.07177,-27.13455],[-53.06982,-27.1461],[-53.07124,-27.15697],[-53.08018,-27.16432],[-53.09628,-27.16727],[-53.11333,-27.17223],[-53.12699,-27.17937],[-53.13218,-27.18023],[-53.13959,-27.17575],[-53.14373,-27.16058],[-53.15028,-27.14378],[-53.1594,-27.14],[-53.1695,-27.14419],[-53.17393,-27.15585],[-53.17504,-27.1716],[-53.17804,-27.18248],[-53.1821,-27.18932],[-53.19189,-27.19312],[-53.19722,-27.19265],[-53.21726,-27.17969],[-53.23209,-27.17111],[-53.24474,-27.17283],[-53.25958,-27.18327],[-53.2679,-27.1874],[-53.29307,-27.19692],[-53.30118,-27.20526],[-53.30365,-27.21083],[-53.31099,-27.21873],[-53.31936,-27.21732],[-53.32258,-27.2115],[-53.32073,-27.19824],[-53.30902,-27.18161],[-53.30299,-27.16547],[-53.29598,-27.15154],[-53.29294,-27.14081],[-53.29924,-27.1287],[-53.3087,-27.12131],[-53.31731,-27.1186],[-53.33723,-27.12146],[-53.34575,-27.12099],[-53.3533,-27.11538],[-53.36498,-27.09435],[-53.37064,-27.0911],[-53.38104,-27.09411],[-53.38713,-27.10065],[-53.3956,-27.11342],[-53.39923,-27.12536],[-53.40621,-27.13654],[-53.41794,-27.14444],[-53.43183,-27.14623],[-53.44906,-27.15493],[-53.45537,-27.15689],[-53.46417,-27.15504],[-53.47634,-27.13891],[-53.48445,-27.13394],[-53.4912,-27.13233],[-53.50313,-27.13476],[-53.50707,-27.1394],[-53.5081,-27.15147],[-53.50286,-27.16558],[-53.49171,-27.17669],[-53.48973,-27.18043],[-53.48814,-27.19426],[-53.49046,-27.20104],[-53.49641,-27.20418],[-53.50748,-27.20421],[-53.51825,-27.20218],[-53.53074,-27.19455],[-53.54242,-27.1808],[-53.55624,-27.17265],[-53.56288,-27.17258],[-53.57111,-27.17566],[-53.59144,-27.18747],[-53.59961,-27.18936],[-53.61328,-27.18592],[-53.61823,-27.18734],[-53.63073,-27.21338],[-53.64211,-27.21981],[-53.64872,-27.21802],[-53.65099,-27.21007],[-53.64792,-27.19131],[-53.65132,-27.17657],[-53.6664,-27.16273],[-53.67505,-27.16068],[-53.68622,-27.1636],[-53.70564,-27.17285],[-53.71626,-27.18165],[-53.73089,-27.18934],[-53.7402,-27.19208],[-53.74782,-27.19185],[-53.75159,-27.18805],[-53.75749,-27.17306],[-53.76004,-27.16226],[-53.76507,-27.1525],[-53.77601,-27.14749],[-53.809,-27.17276],[-53.81485,-27.17589],[-53.82964,-27.17263],[-53.8416,-27.16561],[-53.8478,-27.15651],[-53.85863,-27.13262],[-53.86432,-27.12625],[-53.8699,-27.1252],[-53.87891,-27.12755],[-53.885,-27.1354],[-53.88729,-27.15202],[-53.89775,-27.17033],[-53.9017,-27.17386],[-53.91023,-27.17629],[-53.9169,-27.17475],[-53.92904,-27.15897],[-53.93358,-27.15586],[-53.94658,-27.15126],[-53.9531,-27.15294],[-53.95985,-27.16014],[-53.96071,-27.16511],[-53.95577,-27.17561],[-53.95558,-27.18372],[-53.96017,-27.19534],[-53.97233,-27.19893],[-53.98416,-27.19621],[-54.00107,-27.19632],[-54.00802,-27.19839],[-54.01498,-27.20811],[-54.01649,-27.21631],[-54.01591,-27.23301],[-54.02079,-27.24585],[-54.02778,-27.25485],[-54.05194,-27.26154],[-54.06039,-27.26947],[-54.07228,-27.29095],[-54.08236,-27.29894],[-54.10105,-27.30326],[-54.13276,-27.3015],[-54.1549,-27.29686],[-54.15878,-27.29429],[-54.16017,-27.28757],[-54.15619,-27.28004],[-54.15577,-27.269],[-54.16209,-27.25609],[-54.16949,-27.25363],[-54.17419,-27.25491],[-54.18656,-27.26491],[-54.1942,-27.29233],[-54.19228,-27.30077],[-54.19334,-27.30846],[-54.20479,-27.32784],[-54.2104,-27.33997],[-54.21331,-27.35124],[-54.21409,-27.36531],[-54.21303,-27.37513],[-54.21444,-27.38158],[-54.22229,-27.38947],[-54.23535,-27.39371],[-54.2426,-27.39296],[-54.25984,-27.39624],[-54.26751,-27.40429],[-54.26852,-27.41539],[-54.27066,-27.41873],[-54.26781,-27.43135],[-54.27202,-27.44105],[-54.28296,-27.44778],[-54.29422,-27.44591],[-54.30148,-27.4335],[-54.31064,-27.42196],[-54.3207,-27.41297],[-54.33348,-27.40351],[-54.34154,-27.40435],[-54.34283,-27.41281],[-54.34037,-27.431],[-54.33514,-27.44648],[-54.33507,-27.45129],[-54.34039,-27.46336],[-54.34612,-27.46698],[-54.35721,-27.46494],[-54.36977,-27.45258],[-54.37717,-27.4419],[-54.38452,-27.42814],[-54.39876,-27.41161],[-54.4114,-27.40529],[-54.41944,-27.40934],[-54.43043,-27.41956],[-54.43912,-27.42475],[-54.44485,-27.42509],[-54.45665,-27.42216],[-54.46993,-27.42584],[-54.47206,-27.43446],[-54.46037,-27.4486],[-54.448,-27.45598],[-54.44399,-27.45996],[-54.44328,-27.46834],[-54.44951,-27.47542],[-54.45618,-27.47814],[-54.47401,-27.48125],[-54.49182,-27.47981],[-54.5006,-27.48035],[-54.51031,-27.48549],[-54.51782,-27.49899],[-54.52492,-27.50617],[-54.53442,-27.50566],[-54.53713,-27.50281],[-54.54241,-27.48675],[-54.56137,-27.4625],[-54.57335,-27.45361],[-54.58097,-27.45326],[-54.58939,-27.45818],[-54.59221,-27.46857],[-54.59187,-27.47513],[-54.59495,-27.48737],[-54.60954,-27.51042],[-54.61579,-27.53224],[-54.6269,-27.54402],[-54.63408,-27.54638],[-54.6424,-27.5448],[-54.64803,-27.54023],[-54.65201,-27.53168],[-54.65674,-27.51322],[-54.66008,-27.5086],[-54.67094,-27.50476],[-54.67548,-27.50578],[-54.67943,-27.51285],[-54.68012,-27.52664],[-54.67387,-27.54824],[-54.67166,-27.56642],[-54.67476,-27.57145],[-54.68086,-27.5745],[-54.69424,-27.5728],[-54.71723,-27.56489],[-54.73853,-27.56094],[-54.74486,-27.56264],[-54.75873,-27.5815],[-54.76631,-27.58486],[-54.77813,-27.58372],[-54.78455,-27.57869],[-54.79078,-27.55767],[-54.79519,-27.53498],[-54.80261,-27.5307],[-54.80979,-27.53005],[-54.81714,-27.53556],[-54.82655,-27.55403],[-54.83107,-27.56789],[-54.83971,-27.60523],[-54.84772,-27.62131],[-54.85463,-27.62738],[-54.86076,-27.62944],[-54.87886,-27.62598],[-54.88851,-27.62661],[-54.89525,-27.62922],[-54.90317,-27.63639],[-54.90714,-27.64788],[-54.90498,-27.65622],[-54.90376,-27.68219],[-54.90445,-27.69013],[-54.9022,-27.70249],[-54.90249,-27.71557],[-54.90664,-27.72979],[-54.91537,-27.73805],[-54.92934,-27.75637],[-54.93741,-27.77045],[-54.94942,-27.77928],[-54.96095,-27.77848],[-54.97766,-27.77086],[-54.98877,-27.77224],[-54.99304,-27.77555],[-55.00027,-27.79236],[-55.00578,-27.79623],[-55.0142,-27.79703],[-55.02431,-27.7942],[-55.03116,-27.78808],[-55.04511,-27.77253],[-55.05091,-27.76876],[-55.05791,-27.76809],[-55.07308,-27.77366],[-55.08022,-27.77828],[-55.08387,-27.78413],[-55.08271,-27.79686],[-55.07029,-27.80349],[-55.06219,-27.81053],[-55.05287,-27.81609],[-55.03427,-27.82466],[-55.02469,-27.83531],[-55.02558,-27.84842],[-55.02983,-27.85462],[-55.03638,-27.85778],[-55.04443,-27.85586],[-55.05684,-27.84996],[-55.08531,-27.8431],[-55.09106,-27.84317],[-55.11383,-27.84899],[-55.12628,-27.85982],[-55.12726,-27.86459],[-55.12401,-27.88149],[-55.12821,-27.89389],[-55.13931,-27.89507],[-55.16175,-27.87467],[-55.16573,-27.86688],[-55.17156,-27.86128],[-55.18045,-27.85715],[-55.19139,-27.85541],[-55.20268,-27.85786],[-55.21286,-27.86756],[-55.23227,-27.88407],[-55.25012,-27.91421],[-55.26646,-27.92979],[-55.27528,-27.93311],[-55.2858,-27.93228],[-55.30937,-27.92225],[-55.31926,-27.92195],[-55.32728,-27.92674],[-55.33333,-27.93931],[-55.33743,-27.95992],[-55.33999,-27.96653],[-55.34707,-27.97224],[-55.37715,-27.97653],[-55.38228,-27.9791],[-55.38719,-27.98619],[-55.38246,-28.00044],[-55.37153,-28.014],[-55.36904,-28.01907],[-55.3694,-28.02726],[-55.37635,-28.03495],[-55.39051,-28.04523],[-55.41397,-28.05465],[-55.42217,-28.06216],[-55.43054,-28.07623],[-55.43954,-28.08775],[-55.44256,-28.09431],[-55.44792,-28.09738],[-55.45454,-28.0956],[-55.46881,-28.08801],[-55.48788,-28.07646],[-55.49552,-28.07686],[-55.49941,-28.08106],[-55.50671,-28.10278],[-55.51324,-28.11465],[-55.53058,-28.11546],[-55.53983,-28.12261],[-55.5476,-28.13648],[-55.54933,-28.15596],[-55.55755,-28.16456],[-55.56416,-28.16351],[-55.57123,-28.15699],[-55.58534,-28.14795],[-55.5891,-28.14178],[-55.58341,-28.12517],[-55.58694,-28.11954],[-55.59627,-28.11575],[-55.61073,-28.11746],[-55.62078,-28.13098],[-55.62236,-28.13845],[-55.61968,-28.15355],[-55.62806,-28.17235],[-55.63423,-28.17784],[-55.65302,-28.1821],[-55.66208,-28.18924],[-55.67071,-28.19875],[-55.69258,-28.21879],[-55.70473,-28.2243],[-55.73386,-28.22931],[-55.74998,-28.23374],[-55.77125,-28.24145],[-55.77845,-28.24767],[-55.78256,-28.25606],[-55.78004,-28.26516],[-55.77318,-28.27424],[-55.75468,-28.27985],[-55.74306,-28.28145],[-55.73291,-28.28598],[-55.72358,-28.29268],[-55.71194,-28.30394],[-55.70177,-28.31119],[-55.6802,-28.32223],[-55.67042,-28.33439],[-55.66915,-28.34076],[-55.68015,-28.36991],[-55.68877,-28.38816],[-55.6906,-28.396],[-55.69074,-28.4133],[-55.69525,-28.42297],[-55.70434,-28.42756],[-55.71346,-28.42576],[-55.7197,-28.41868],[-55.72831,-28.39248],[-55.73435,-28.38121],[-55.7464,-28.37323],[-55.75657,-28.36943],[-55.78144,-28.36731],[-55.79637,-28.36735],[-55.82167,-28.36359],[-55.85058,-28.35539],[-55.85949,-28.35486],[-55.87109,-28.35726],[-55.87874,-28.36185],[-55.8845,-28.3748],[-55.89008,-28.38119],[-55.90039,-28.39835],[-55.90305,-28.40764],[-55.90095,-28.41875],[-55.88907,-28.44478],[-55.8826,-28.46384],[-55.88133,-28.4735],[-55.88401,-28.47916],[-55.90723,-28.48157],[-55.92879,-28.48635],[-55.93998,-28.49202],[-55.94929,-28.49459],[-55.96031,-28.49479],[-55.98822,-28.49812],[-56.00127,-28.5016],[-56.01122,-28.50689],[-56.01805,-28.51419],[-56.02323,-28.52276],[-56.02569,-28.53479],[-56.02424,-28.54573],[-56.0209,-28.5532],[-56.00715,-28.56899],[-56.00237,-28.5783],[-56.00131,-28.58813],[-56.00337,-28.5978],[-56.01767,-28.61294],[-56.03739,-28.6219],[-56.04735,-28.62409],[-56.06395,-28.63559],[-56.082,-28.6542],[-56.10876,-28.67468],[-56.11915,-28.68125],[-56.1258,-28.68799],[-56.13785,-28.70368],[-56.14345,-28.70913],[-56.15174,-28.72177],[-56.15528,-28.73054],[-56.16567,-28.74658],[-56.18231,-28.767],[-56.19416,-28.7752],[-56.21059,-28.77465],[-56.22328,-28.77684],[-56.26093,-28.77901],[-56.27095,-28.78193],[-56.28911,-28.79372],[-56.29974,-28.80811],[-56.30121,-28.81705],[-56.29729,-28.84142],[-56.29857,-28.87314],[-56.29817,-28.88444],[-56.30005,-28.89556],[-56.30381,-28.90303],[-56.32164,-28.9233],[-56.34419,-28.94006],[-56.37899,-28.94803],[-56.38984,-28.9553],[-56.40634,-28.9726],[-56.41596,-28.99226],[-56.41617,-29.00074],[-56.41285,-29.0053],[-56.40223,-29.01206],[-56.39912,-29.01735],[-56.40436,-29.03248],[-56.41,-29.03866],[-56.41232,-29.04723],[-56.4131,-29.06192],[-56.416,-29.06896],[-56.42177,-29.07549],[-56.43042,-29.0795],[-56.47652,-29.08621],[-56.50303,-29.08866],[-56.51486,-29.09266],[-56.53275,-29.1047],[-56.53767,-29.11148],[-56.55013,-29.11665],[-56.56798,-29.11408],[-56.57778,-29.11531],[-56.58875,-29.11981],[-56.59391,-29.12626],[-56.59487,-29.13629],[-56.61083,-29.16027],[-56.61692,-29.17107],[-56.64584,-29.20029],[-56.65476,-29.22379],[-56.65485,-29.23115],[-56.64921,-29.25496],[-56.65071,-29.26435],[-56.66452,-29.29499],[-56.68912,-29.33397],[-56.69997,-29.35644],[-56.71297,-29.36735],[-56.73007,-29.36885],[-56.74619,-29.36836],[-56.7587,-29.3709],[-56.7684,-29.378],[-56.77315,-29.38699],[-56.78036,-29.41629],[-56.77785,-29.42903],[-56.7795,-29.43737],[-56.79695,-29.44907],[-56.804,-29.45968],[-56.80821,-29.47311],[-56.82209,-29.49002],[-56.84398,-29.49917],[-56.86082,-29.50735],[-56.87284,-29.51474],[-56.88801,-29.52645],[-56.90196,-29.53382],[-56.92075,-29.55452],[-56.92954,-29.56622],[-56.95092,-29.58069],[-56.9678,-29.60179],[-56.97208,-29.6173],[-56.96729,-29.63007],[-56.96739,-29.63726],[-56.97115,-29.64341],[-56.99064,-29.64668],[-57.00092,-29.65191],[-57.01152,-29.6645],[-57.0211,-29.68332],[-57.03343,-29.69571],[-57.04548,-29.70159],[-57.05734,-29.71373],[-57.06922,-29.72194],[-57.08292,-29.73465],[-57.09972,-29.74832],[-57.13191,-29.77016],[-57.15204,-29.77475],[-57.17202,-29.78068],[-57.18066,-29.7812],[-57.22105,-29.7763],[-57.2354,-29.78079],[-57.26775,-29.80946],[-57.28218,-29.81729],[-57.29782,-29.83473],[-57.31449,-29.85991],[-57.32458,-29.87282],[-57.32969,-29.88764],[-57.32862,-29.90255],[-57.32408,-29.92173],[-57.32405,-29.9398],[-57.32814,-29.97204],[-57.33757,-29.98997],[-57.35198,-30.00806],[-57.36211,-30.01193],[-57.38309,-30.01764],[-57.39633,-30.02279],[-57.41752,-30.03837],[-57.42918,-30.05058],[-57.44757,-30.07228],[-57.45376,-30.08156],[-57.45823,-30.10124],[-57.4646,-30.11034],[-57.47599,-30.11836],[-57.50341,-30.13584],[-57.52561,-30.15139],[-57.56961,-30.17176],[-57.58802,-30.17834],[-57.5941,-30.17899],[-57.62508,-30.17499],[-57.63961,-30.17674],[-57.6468,-30.18159],[-57.64974,-30.18932],[-57.64514,-30.19369],[-57.63651,-30.18846],[-57.62637,-30.1867],[-57.61468,-30.18935],[-57.60337,-30.18967],[-57.57328,-30.20484],[-57.56307,-30.20911],[-57.55785,-30.21338],[-57.5563,-30.22497],[-57.55771,-30.23315],[-57.56798,-30.25223],[-57.56634,-30.25911],[-57.55512,-30.265],[-57.55083,-30.27262],[-57.53163,-30.28138],[-57.52541,-30.28547],[-57.51284,-30.28519],[-57.50027,-30.28885],[-57.49006,-30.26902],[-57.48676,-30.26683],[-57.46606,-30.26515],[-57.46059,-30.26742],[-57.4523,-30.27604],[-57.4293,-30.27461],[-57.4164,-30.27798],[-57.41533,-30.28204],[-57.42166,-30.28916],[-57.422,-30.29905],[-57.4186,-30.30264],[-57.41131,-30.30003],[-57.40396,-30.30069],[-57.39763,-30.30454],[-57.38944,-30.30246],[-57.3893,-30.29574],[-57.37875,-30.27942],[-57.36492,-30.27105],[-57.35883,-30.2724],[-57.35819,-30.2807],[-57.35204,-30.28449],[-57.34298,-30.27768],[-57.3195,-30.26974],[-57.31757,-30.26144],[-57.31136,-30.2581],[-57.30272,-30.26865],[-57.30104,-30.27403],[-57.29318,-30.28639],[-57.28456,-30.29372],[-57.27782,-30.29245],[-57.27006,-30.28498],[-57.26897,-30.27165],[-57.25855,-30.26717],[-57.25278,-30.27481],[-57.25587,-30.28185],[-57.25008,-30.28916],[-57.22026,-30.28929],[-57.20934,-30.28454],[-57.20421,-30.28514],[-57.19625,-30.26451],[-57.17602,-30.25076],[-57.16738,-30.24764],[-57.15937,-30.23985],[-57.15514,-30.23322],[-57.16325,-30.22762],[-57.16323,-30.22054],[-57.16692,-30.21833],[-57.16509,-30.21191],[-57.16836,-30.2084],[-57.16721,-30.19633],[-57.15848,-30.19128],[-57.15914,-30.18569],[-57.14478,-30.17161],[-57.14382,-30.1651],[-57.13584,-30.15794],[-57.12917,-30.14084],[-57.12291,-30.14114],[-57.11448,-30.14546],[-57.11099,-30.14268],[-57.10476,-30.12746],[-57.11097,-30.12875],[-57.11673,-30.12004],[-57.11512,-30.11368],[-57.09534,-30.11504],[-57.08935,-30.1204],[-57.08476,-30.11455],[-57.09213,-30.11271],[-57.08767,-30.10663],[-57.08723,-30.10104],[-57.07828,-30.09152],[-57.06647,-30.08528],[-57.0693,-30.09923],[-57.06404,-30.10096],[-57.05787,-30.09865],[-57.04481,-30.10574],[-57.03133,-30.10214],[-57.02894,-30.09285],[-57.0239,-30.08754],[-57.00579,-30.08776],[-56.99344,-30.08571],[-56.9845,-30.08743],[-56.97742,-30.09755],[-56.96776,-30.09766],[-56.95558,-30.10114],[-56.94432,-30.09851],[-56.93601,-30.09446],[-56.91777,-30.0962],[-56.91143,-30.10113],[-56.90263,-30.11234],[-56.89193,-30.1003],[-56.88889,-30.08911],[-56.87454,-30.08625],[-56.87365,-30.09272],[-56.86455,-30.09005],[-56.85037,-30.0889],[-56.83358,-30.0923],[-56.82417,-30.09564],[-56.81864,-30.10614],[-56.81004,-30.10297],[-56.80465,-30.10598],[-56.80185,-30.11987],[-56.79945,-30.1223],[-56.78027,-30.12663],[-56.77779,-30.13371],[-56.78401,-30.15117],[-56.78194,-30.15877],[-56.773,-30.16426],[-56.76091,-30.16045],[-56.73645,-30.17039],[-56.72979,-30.1717],[-56.7199,-30.17973],[-56.70988,-30.17576],[-56.70482,-30.17928],[-56.70839,-30.18813],[-56.69625,-30.20505],[-56.6855,-30.19613],[-56.67869,-30.20026],[-56.6608,-30.19834],[-56.65061,-30.20743],[-56.65027,-30.21216],[-56.6578,-30.21294],[-56.66802,-30.2171],[-56.66449,-30.22186],[-56.65207,-30.21959],[-56.64684,-30.22295],[-56.64116,-30.23482],[-56.62495,-30.24549],[-56.62525,-30.24952],[-56.63134,-30.25524],[-56.63772,-30.2541],[-56.63917,-30.25913],[-56.6276,-30.26686],[-56.61599,-30.26157],[-56.6095,-30.26944],[-56.60724,-30.28136],[-56.61441,-30.29009],[-56.62096,-30.293],[-56.61874,-30.30123],[-56.61081,-30.29882],[-56.60514,-30.29283],[-56.59576,-30.29541],[-56.5853,-30.29037],[-56.57431,-30.29132],[-56.57658,-30.30225],[-56.56312,-30.31167],[-56.55575,-30.3203],[-56.54697,-30.31149],[-56.54093,-30.31469],[-56.54085,-30.32734],[-56.53702,-30.33414],[-56.54969,-30.33915],[-56.55199,-30.34415],[-56.54472,-30.35175],[-56.54614,-30.36065],[-56.53636,-30.35903],[-56.51943,-30.3598],[-56.51717,-30.3633],[-56.50519,-30.37047],[-56.50733,-30.3808],[-56.49645,-30.38706],[-56.49136,-30.39811],[-56.48525,-30.3991],[-56.48052,-30.39249],[-56.46704,-30.38531],[-56.46218,-30.38448],[-56.45582,-30.39286],[-56.45387,-30.40221],[-56.44454,-30.41161],[-56.44491,-30.41578],[-56.45395,-30.42134],[-56.44746,-30.42475],[-56.43998,-30.43252],[-56.42787,-30.43516],[-56.42327,-30.43206],[-56.41514,-30.4328],[-56.41483,-30.43813],[-56.40801,-30.44689],[-56.39819,-30.44844],[-56.39978,-30.45857],[-56.40703,-30.45987],[-56.40624,-30.46861],[-56.39718,-30.47895],[-56.39494,-30.48538],[-56.38733,-30.48699],[-56.38586,-30.49558],[-56.37808,-30.50146],[-56.36826,-30.50317],[-56.36079,-30.50006],[-56.36524,-30.49273],[-56.35715,-30.49168],[-56.35049,-30.49661],[-56.34896,-30.50409],[-56.33625,-30.51082],[-56.33743,-30.51882],[-56.33128,-30.52935],[-56.32292,-30.53182],[-56.3097,-30.53101],[-56.29733,-30.52626],[-56.29061,-30.52199],[-56.289,-30.53992],[-56.27896,-30.55326],[-56.27667,-30.56069],[-56.26516,-30.55514],[-56.25834,-30.56201],[-56.25674,-30.56695],[-56.26218,-30.57182],[-56.25985,-30.58041],[-56.26184,-30.58465],[-56.25409,-30.58703],[-56.25025,-30.57826],[-56.24505,-30.57374],[-56.23796,-30.57343],[-56.22565,-30.5789],[-56.22384,-30.5848],[-56.2351,-30.58803],[-56.23421,-30.59361],[-56.22436,-30.59733],[-56.21988,-30.60708],[-56.2141,-30.60846],[-56.19577,-30.60381],[-56.18767,-30.60469],[-56.17051,-30.61645],[-56.17897,-30.62091],[-56.183,-30.62641],[-56.17768,-30.63356],[-56.16732,-30.63904],[-56.16458,-30.64316],[-56.17017,-30.65288],[-56.16669,-30.66342],[-56.15194,-30.68045],[-56.1439,-30.6796],[-56.1381,-30.6871],[-56.15044,-30.69408],[-56.1501,-30.70549],[-56.13753,-30.71054],[-56.13031,-30.71652],[-56.13275,-30.732],[-56.12679,-30.74055],[-56.11915,-30.73751],[-56.11678,-30.73305],[-56.10733,-30.732],[-56.10233,-30.7445],[-56.09698,-30.74783],[-56.09569,-30.75402],[-56.08839,-30.75752],[-56.07418,-30.74558],[-56.06785,-30.74756],[-56.06319,-30.75276],[-56.06575,-30.76938],[-56.04952,-30.77679],[-56.04657,-30.77372],[-56.03913,-30.77522],[-56.03512,-30.78457],[-56.02361,-30.78574],[-56.02119,-30.79148],[-56.02449,-30.79962],[-56.01601,-30.80232],[-56.01247,-30.8073],[-56.01647,-30.81161],[-56.01618,-30.81876],[-56.00875,-30.81968],[-56.00424,-30.8304],[-56.00438,-30.83984],[-55.99503,-30.84492],[-55.98968,-30.85987],[-55.99038,-30.86641],[-55.99784,-30.87351],[-56.00094,-30.88268],[-56.00669,-30.8911],[-56.00824,-30.90641],[-56.01105,-30.91195],[-56.00548,-30.92232],[-56.01015,-30.92708],[-56.01037,-30.93757],[-56.01499,-30.94197],[-56.01061,-30.94597],[-56.01257,-30.95404],[-56.01015,-30.95815],[-56.01063,-30.96858],[-56.00569,-30.97323],[-56.0108,-30.9783],[-56.00706,-30.98375],[-56.01764,-31.00302],[-56.01805,-31.01077],[-56.0143,-31.02187],[-56.01742,-31.03098],[-56.01879,-31.04362],[-56.01201,-31.06387],[-56.00765,-31.07174],[-56.00531,-31.08195],[-55.99267,-31.08505],[-55.98668,-31.07729],[-55.9793,-31.0732],[-55.9683,-31.07483],[-55.96532,-31.0775],[-55.94506,-31.08173],[-55.93851,-31.08583],[-55.93028,-31.08626],[-55.92585,-31.07683],[-55.91856,-31.07371],[-55.91046,-31.07509],[-55.8987,-31.06671],[-55.89087,-31.07715],[-55.88245,-31.07727],[-55.87767,-31.07261],[-55.87076,-31.07157],[-55.86932,-31.06498],[-55.86056,-31.05443],[-55.85528,-31.04512],[-55.8437,-31.04261],[-55.82978,-31.0437],[-55.81991,-31.02979],[-55.80716,-31.01651],[-55.79516,-31.01532],[-55.78089,-31.01715],[-55.76656,-31.01002],[-55.76791,-31.00348],[-55.76311,-31],[-55.75216,-30.99743],[-55.74576,-30.98529],[-55.74664,-30.97946],[-55.73386,-30.98137],[-55.73154,-30.97408],[-55.72436,-30.96604],[-55.72236,-30.95734],[-55.72454,-30.95124],[-55.71879,-30.94164],[-55.70395,-30.95522],[-55.69487,-30.94345],[-55.68883,-30.94486],[-55.68846,-30.95236],[-55.67624,-30.95609],[-55.66619,-30.95398],[-55.66383,-30.94681],[-55.65858,-30.94383],[-55.66326,-30.93552],[-55.65634,-30.92611],[-55.6484,-30.92296],[-55.64212,-30.9116],[-55.64808,-30.90668],[-55.6481,-30.90271],[-55.65491,-30.89243],[-55.65289,-30.8833],[-55.66315,-30.87189],[-55.65782,-30.86382],[-55.64894,-30.86508],[-55.64664,-30.85483],[-55.63786,-30.84622],[-55.62873,-30.84802],[-55.62252,-30.8422],[-55.61305,-30.84321],[-55.60678,-30.84965],[-55.59074,-30.84089],[-55.57861,-30.8329],[-55.57925,-30.8401],[-55.5719,-30.84596],[-55.56728,-30.84545],[-55.56365,-30.86058],[-55.56356,-30.86866],[-55.55478,-30.8726],[-55.55184,-30.88266],[-55.54591,-30.89054],[-55.53374,-30.89726],[-55.51697,-30.89871],[-55.51017,-30.90176],[-55.51015,-30.91134],[-55.50416,-30.92475],[-55.49371,-30.92468],[-55.48643,-30.92828],[-55.48974,-30.93981],[-55.48669,-30.94766],[-55.47836,-30.95385],[-55.46898,-30.95464],[-55.46468,-30.9507],[-55.45731,-30.95138],[-55.45147,-30.96049],[-55.44129,-30.95973],[-55.43963,-30.96665],[-55.43294,-30.97272],[-55.43156,-30.97816],[-55.42458,-30.98563],[-55.43747,-30.99432],[-55.43443,-31.00094],[-55.43705,-31.00472],[-55.42527,-31.01168],[-55.42497,-31.01646],[-55.41493,-31.01447],[-55.40669,-31.01875],[-55.4049,-31.02733],[-55.39993,-31.02856],[-55.39254,-31.02575],[-55.38724,-31.02057],[-55.38,-31.02353],[-55.37129,-31.02341],[-55.37249,-31.03066],[-55.36257,-31.039],[-55.35751,-31.04045],[-55.35135,-31.03761],[-55.34883,-31.04287],[-55.35277,-31.05721],[-55.35858,-31.06258],[-55.35466,-31.06905],[-55.34555,-31.07558],[-55.33898,-31.08508],[-55.32747,-31.08818],[-55.33193,-31.09524],[-55.33386,-31.105],[-55.32971,-31.1079],[-55.33074,-31.11738],[-55.33704,-31.11991],[-55.33846,-31.13369],[-55.33432,-31.13285],[-55.32622,-31.138],[-55.32083,-31.13585],[-55.31863,-31.14511],[-55.3016,-31.14338],[-55.2897,-31.14528],[-55.2905,-31.15018],[-55.28526,-31.1564],[-55.29074,-31.16282],[-55.28072,-31.16976],[-55.27191,-31.17284],[-55.28371,-31.18804],[-55.28272,-31.19391],[-55.27099,-31.19593],[-55.26281,-31.19468],[-55.25701,-31.19821],[-55.2501,-31.20601],[-55.25399,-31.21112],[-55.24882,-31.21844],[-55.24895,-31.22723],[-55.2466,-31.23331],[-55.24888,-31.24122],[-55.24676,-31.25224],[-55.24038,-31.25366],[-55.23532,-31.25842],[-55.21371,-31.2632],[-55.20342,-31.26187],[-55.19924,-31.26424],[-55.18379,-31.26535],[-55.17419,-31.26817],[-55.15665,-31.28542],[-55.15234,-31.29323],[-55.14049,-31.29762],[-55.13652,-31.30135],[-55.12576,-31.30244],[-55.12238,-31.30485],[-55.12206,-31.31278],[-55.11383,-31.31119],[-55.10904,-31.30768],[-55.1028,-31.31499],[-55.09888,-31.31448],[-55.08908,-31.31944],[-55.0777,-31.32772],[-55.07446,-31.33209],[-55.06586,-31.33016],[-55.05311,-31.31392],[-55.03889,-31.30052],[-55.0332,-31.28754],[-55.03586,-31.28407],[-55.03176,-31.2786],[-55.03189,-31.26974],[-55.00241,-31.26922],[-55.00152,-31.28162],[-54.99482,-31.28308],[-54.99337,-31.28993],[-54.98565,-31.29244],[-54.98001,-31.303],[-54.98285,-31.3114],[-54.97494,-31.31692],[-54.95777,-31.32444],[-54.95307,-31.33197],[-54.95277,-31.33933],[-54.95869,-31.33961],[-54.96114,-31.34673],[-54.95921,-31.35245],[-54.95293,-31.35459],[-54.9387,-31.35409],[-54.93505,-31.35648],[-54.93512,-31.36436],[-54.94108,-31.37925],[-54.9325,-31.38505],[-54.91817,-31.37886],[-54.90716,-31.38133],[-54.89799,-31.38136],[-54.89963,-31.37633],[-54.89184,-31.37483],[-54.88598,-31.37728],[-54.88739,-31.38322],[-54.87839,-31.39808],[-54.85793,-31.40805],[-54.86154,-31.41792],[-54.83646,-31.44194],[-54.82703,-31.43635],[-54.81178,-31.43483],[-54.80943,-31.43068],[-54.79652,-31.43003],[-54.79175,-31.43384],[-54.7704,-31.42719],[-54.75271,-31.42515],[-54.75061,-31.42744],[-54.73885,-31.42562],[-54.73556,-31.42975],[-54.72462,-31.42964],[-54.72131,-31.43701],[-54.71141,-31.43951],[-54.69665,-31.43804],[-54.69554,-31.44323],[-54.68559,-31.44454],[-54.67667,-31.44782],[-54.67034,-31.45408],[-54.58685,-31.45654],[-54.58664,-31.46223],[-54.57962,-31.47043],[-54.57744,-31.48103],[-54.57068,-31.48247],[-54.5667,-31.48709],[-54.55975,-31.48784],[-54.56012,-31.4927],[-54.55239,-31.49365],[-54.54736,-31.49838],[-54.53419,-31.50143],[-54.52835,-31.50589],[-54.51564,-31.51018],[-54.51038,-31.52152],[-54.50669,-31.52325],[-54.50163,-31.53144],[-54.50161,-31.537],[-54.49667,-31.54045],[-54.49014,-31.55193],[-54.49364,-31.55814],[-54.48094,-31.56976],[-54.47294,-31.57035],[-54.46706,-31.59214],[-54.45797,-31.59406],[-54.45907,-31.60572],[-54.46574,-31.61002],[-54.46448,-31.61913],[-54.46111,-31.6259],[-54.45366,-31.62996],[-54.45514,-31.63544],[-54.45151,-31.64004],[-54.45623,-31.6517],[-54.31807,-31.75521],[-54.17398,-31.86233],[-54.15548,-31.87635],[-54.14267,-31.88431],[-54.1442,-31.88827],[-54.13807,-31.89641],[-54.12448,-31.90003],[-54.11565,-31.90687],[-54.11058,-31.90786],[-54.10711,-31.91766],[-54.09579,-31.92969],[-54.08134,-31.92965],[-54.0808,-31.9243],[-54.07352,-31.91876],[-54.07,-31.92262],[-54.05615,-31.91168],[-54.05368,-31.9051],[-54.04226,-31.90057],[-54.03897,-31.89736],[-54.01541,-31.90246],[-54.00783,-31.90836],[-54.00438,-31.91463],[-53.99767,-31.9138],[-53.98983,-31.91757],[-53.98106,-31.91602],[-53.96326,-31.92196],[-53.9617,-31.93024],[-53.9722,-31.93614],[-53.97149,-31.94271],[-53.9661,-31.94993],[-53.95389,-31.95694],[-53.95,-31.95447],[-53.93225,-31.96118],[-53.91846,-31.96383],[-53.90975,-31.96996],[-53.90673,-31.97611],[-53.89948,-31.97788],[-53.89679,-31.98498],[-53.89172,-31.98877],[-53.89213,-31.99539],[-53.87932,-31.99496],[-53.873,-31.99878],[-53.86639,-31.99327],[-53.86048,-31.99755],[-53.85075,-32.00016],[-53.85416,-32.01039],[-53.85115,-32.02739],[-53.83815,-32.03283],[-53.8331,-32.04622],[-53.83332,-32.05514],[-53.82686,-32.0597],[-53.81493,-32.06202],[-53.804,-32.07073],[-53.79394,-32.06918],[-53.78924,-32.07221],[-53.77868,-32.07174],[-53.76907,-32.07372],[-53.76384,-32.07957],[-53.74787,-32.07786],[-53.74537,-32.09144],[-53.73353,-32.09302],[-53.72527,-32.09585],[-53.73236,-32.10559],[-53.73759,-32.10558],[-53.74423,-32.11526],[-53.73276,-32.13219],[-53.72573,-32.14006],[-53.72716,-32.14649],[-53.7171,-32.15548],[-53.72349,-32.17368],[-53.71264,-32.17806],[-53.71399,-32.18804],[-53.70584,-32.18707],[-53.70283,-32.19153],[-53.71108,-32.19665],[-53.70487,-32.2067],[-53.6946,-32.20398],[-53.69334,-32.21364],[-53.68519,-32.21962],[-53.67644,-32.23781],[-53.67934,-32.24306],[-53.67668,-32.25308],[-53.67779,-32.2586],[-53.66474,-32.275],[-53.65851,-32.27581],[-53.65563,-32.28023],[-53.65738,-32.28816],[-53.65281,-32.29235],[-53.64409,-32.2952],[-53.6432,-32.30158],[-53.64789,-32.31263],[-53.65652,-32.3122],[-53.65717,-32.31682],[-53.65255,-32.32112],[-53.64309,-32.32492],[-53.64498,-32.33239],[-53.63312,-32.35398],[-53.64362,-32.36825],[-53.64547,-32.37954],[-53.64402,-32.38493],[-53.62787,-32.38911],[-53.61438,-32.3984],[-53.61209,-32.40343],[-53.61582,-32.41511],[-53.5964,-32.43295],[-53.58884,-32.43517],[-53.58404,-32.45131],[-53.56706,-32.45853],[-53.56218,-32.46659],[-53.5526,-32.47389],[-53.54095,-32.47293],[-53.54357,-32.4779],[-53.52249,-32.48618],[-53.49955,-32.48104],[-53.47806,-32.48384],[-53.47094,-32.48069],[-53.46261,-32.48764],[-53.46614,-32.492],[-53.46212,-32.49831],[-53.46352,-32.50272],[-53.45658,-32.51675],[-53.4575,-32.5223],[-53.44945,-32.52863],[-53.4369,-32.54816],[-53.43243,-32.56493],[-53.42665,-32.5652],[-53.42468,-32.55892],[-53.41742,-32.5609],[-53.41665,-32.568],[-53.40339,-32.57999],[-53.38812,-32.58693],[-53.38024,-32.57831],[-53.37868,-32.5716],[-53.3697,-32.56987],[-53.35272,-32.59193],[-53.34623,-32.59162],[-53.33882,-32.58462],[-53.31319,-32.59908],[-53.30316,-32.60683],[-53.29684,-32.61611],[-53.28881,-32.6211],[-53.27859,-32.61863],[-53.27784,-32.61154],[-53.26857,-32.60406],[-53.2549,-32.60196],[-53.24559,-32.60711],[-53.24348,-32.62318],[-53.23706,-32.62977],[-53.21468,-32.63882],[-53.19327,-32.64164],[-53.18441,-32.64653],[-53.18063,-32.65502],[-53.07558,-32.74088],[-53.07929,-32.77003],[-53.08345,-32.78612],[-53.0858,-32.78835],[-53.11299,-32.78741],[-53.13845,-32.7893],[-53.14968,-32.79454],[-53.15496,-32.80034],[-53.15044,-32.80587],[-53.15258,-32.81165],[-53.16594,-32.83104],[-53.17726,-32.84426],[-53.18496,-32.85043],[-53.29458,-32.8993],[-53.31016,-32.91876],[-53.24471,-32.93488],[-53.44441,-33.05295],[-53.51825,-33.15335],[-53.52174,-33.26515],[-53.50792,-33.35314],[-53.5112,-33.4595],[-53.52526,-33.52632],[-53.52363,-33.59348],[-53.53461,-33.60339],[-53.53259,-33.60658],[-53.53454,-33.61673],[-53.52608,-33.62621],[-53.52962,-33.63345],[-53.52816,-33.63992],[-53.53396,-33.65141],[-53.53108,-33.65686],[-53.53314,-33.66341],[-53.52483,-33.67526],[-53.53011,-33.67811],[-53.5295,-33.6884],[-53.43952,-33.69346],[-53.43645,-33.70135],[-53.43841,-33.71313],[-53.43374,-33.71946],[-53.43575,-33.72396],[-53.42685,-33.73906],[-53.41674,-33.7483],[-53.3969,-33.75077],[-53.38589,-33.74604],[-53.38109,-33.74767],[-53.37004,-33.74391],[-53.34137,-33.72191],[-53.29724,-33.69194],[-53.26498,-33.67131],[-53.23878,-33.65234],[-53.20415,-33.62446],[-53.19155,-33.61676],[-53.15624,-33.59008],[-53.11235,-33.55237],[-53.08616,-33.53067],[-53.05537,-33.50675],[-52.99549,-33.45886],[-52.96074,-33.43168],[-52.93642,-33.41182],[-52.9117,-33.3925],[-52.87615,-33.36382],[-52.85017,-33.3421],[-52.80202,-33.30491],[-52.77673,-33.28309],[-52.75557,-33.26284],[-52.73404,-33.24107],[-52.7095,-33.21382],[-52.68767,-33.18852],[-52.65011,-33.14169],[-52.63639,-33.12327],[-52.62386,-33.10424],[-52.60347,-33.06926],[-52.59321,-33.05023],[-52.57726,-33.017],[-52.56509,-32.99487],[-52.55789,-32.97999],[-52.53716,-32.94258],[-52.51856,-32.91183],[-52.50679,-32.89033],[-52.49518,-32.86723],[-52.48521,-32.84428],[-52.46406,-32.78763],[-52.45584,-32.76169],[-52.44862,-32.73467],[-52.43323,-32.66819],[-52.42327,-32.62987],[-52.41573,-32.60523],[-52.38643,-32.52583],[-52.37098,-32.48823],[-52.35988,-32.46396],[-52.34076,-32.42457],[-52.32202,-32.38855],[-52.30506,-32.35821],[-52.29303,-32.33832],[-52.26974,-32.30406],[-52.25092,-32.27984],[-52.23388,-32.26023],[-52.22089,-32.24716],[-52.21192,-32.23969],[-52.19901,-32.2266],[-52.17829,-32.21029],[-52.14769,-32.18438],[-52.12488,-32.16926],[-52.11074,-32.16354],[-52.08219,-32.16008],[-52.07724,-32.14321],[-52.04527,-32.11059],[-52.01814,-32.08142],[-51.96891,-32.03184],[-51.94342,-32.00802],[-51.92078,-31.98774],[-51.89516,-31.96643],[-51.86764,-31.94532],[-51.83088,-31.91916],[-51.7966,-31.89771],[-51.74802,-31.86998],[-51.71873,-31.85463]]]},"properties":{"NM_UF":"Rio Grande do Sul"}}
]}